IRIDIUM 171             
1 43929U 19002H   25114.75952328  .00000172  00000+0  54526-4 0  9998
2 43929  86.4022 168.7286 0002527 100.1967 259.9514 14.34216287328982
IRIDIUM 170             
1 43930U 19002J   25114.21222671  .00001540  00000+0  24034-3 0  9992
2 43930  86.6136 168.7225 0002123 100.4162 259.7294 14.72243291337617
IRIDIUM 167             
1 43931U 19002K   25114.19503243  .00000313  00000+0  10456-3 0  9997
2 43931  86.4012 168.7230 0002310 105.9761 254.1689 14.34218847328904
IRIDIUM 181             
1 56726U 23068S   25114.35693522  .00000563  00000+0  16132-3 0  9992
2 56726  86.4529 231.6984 0002799 101.9157 258.2357 14.43307188102022
IRIDIUM 177             
1 56727U 23068T   25114.46302949  .00002715  00000+0  35383-3 0  9995
2 56727  86.2010 167.6208 0002574 101.9198 258.2312 14.80224090104427
IRIDIUM 174             
1 56728U 23068U   25114.20654649  .00001617  00000+0  25002-3 0  9992
2 56728  86.6141 168.8369 0002036  97.4521 262.6927 14.72693033104373
IRIDIUM 178             
1 56729U 23068V   25113.70849217  .00001658  00000+0  21489-3 0  9994
2 56729  86.6614 200.5513 0002493  90.5412 269.6095 14.80216762104310
IRIDIUM 179             
1 56730U 23068W   25114.71715257  .00002956  00000+0  38548-3 0  9990
2 56730  86.6842 207.8403 0002152 102.0134 258.1329 14.80241971104464
